KUIPER-00121            
1 65950U 25228D   26062.32179105  .00006491  00000+0  87972-3 0  9993
2 65950  51.9010  21.2503 0001322  99.5126 260.5986 14.79929635 22393
KUIPER-00122            
1 65951U 25228E   26062.10719678 -.00013237  00000+0 -17158-2 0  9991
2 65951  51.9015  32.1635 0000973  84.7942 275.3132 14.79810679 22225
KUIPER-00123            
1 65952U 25228F   26062.20993577  .00006203  00000+0  84191-3 0  9990
2 65952  51.8995  31.7465 0001031  91.7301 268.3779 14.79937341 22237
KUIPER-00124            
1 65953U 25228G   26062.08279391 -.00000146  00000+0  98690-5 0  9990
2 65953  51.8989  24.7939 0001077 102.0648 258.0435 14.79938137 22328
KUIPER-00125            
1 65954U 25228H   26062.23403476  .00006722  00000+0  91026-3 0  9990
2 65954  51.9019   9.1500 0000960 107.9676 252.1391 14.79912808 22558
KUIPER-00126            
1 65955U 25228J   26062.11116926  .00002172  00000+0  31374-3 0  9994
2 65955  51.8986  29.6911 0001021  99.6349 260.4729 14.79941050 22252
KUIPER-00127            
1 65956U 25228K   26062.32450766  .00004205  00000+0  63051-3 0  9997
2 65956  51.9010  20.0175 0001406 171.8581 188.2403 14.76347939 22414
KUIPER-00128            
1 65957U 25228L   26062.08521794  .00005770  00000+0  78709-3 0  9995
2 65957  51.9022  22.3193 0000815  96.7630 263.3425 14.79831526 22351
KUIPER-00129            
1 65958U 25228M   26062.12465180  .00002221  00000+0  32028-3 0  9999
2 65958  51.9022  17.1328 0001003  84.9197 275.1880 14.79937379 22439
KUIPER-00130            
1 65959U 25228N   26062.08846278  .00005857  00000+0  79583-3 0  9991
2 65959  51.9039  19.8005 0001124  93.3998 266.7093 14.79978214 12687
KUIPER-00134            
1 65960U 25228P   26062.22054085  .00042941  00000+0  11217-2 0  9990
2 65960  51.8771 351.7148 0005306 301.7919  58.2551 15.38347653 22791
KUIPER-00135            
1 65961U 25228Q   26062.25700650 -.00004735  00000+0 -59258-3 0  9999
2 65961  51.9036  19.1148 0000906  79.6421 280.4644 14.79925586 22414
KUIPER-00136            
1 65962U 25228R   26062.09069584  .00006131  00000+0  83429-3 0  9993
2 65962  51.9018  17.3224 0001382  95.3717 264.7404 14.79843077 22426
KUIPER-00137            
1 65963U 25228S   26060.14222049  .00006080  00000+0  75902-3 0  9995
2 65963  51.9033  23.4733 0002015 145.0130 215.0966 14.83494519 22175
KUIPER-00138            
1 65964U 25228T   26062.06246353 -.00001244  00000+0 -13420-3 0  9999
2 65964  51.8998  12.3968 0000873  85.0417 275.0645 14.79937999 22497
KUIPER-00140            
1 65965U 25228U   26062.05977187  .00002771  00000+0  39238-3 0  9994
2 65965  51.9005  14.9919 0001023  82.9053 277.2025 14.79923925 22458
