[{"OBJECT_NAME":"KUIPER-00121","OBJECT_ID":"2025-228D","EPOCH":"2026-03-03T07:43:22.746720","MEAN_MOTION":14.79929635,"ECCENTRICITY":0.0001322,"INCLINATION":51.901,"RA_OF_ASC_NODE":21.2503,"ARG_OF_PERICENTER":99.5126,"MEAN_ANOMALY":260.5986,"EPHEMERIS_TYPE":0,"CLASSIFICATION_TYPE":"U","NORAD_CAT_ID":65950,"ELEMENT_SET_NO":999,"REV_AT_EPOCH":2239,"BSTAR":0.00087972485,"MEAN_MOTION_DOT":6.491e-5,"MEAN_MOTION_DDOT":0},{"OBJECT_NAME":"KUIPER-00122","OBJECT_ID":"2025-228E","EPOCH":"2026-03-03T02:34:21.801792","MEAN_MOTION":14.79810679,"ECCENTRICITY":9.732e-5,"INCLINATION":51.9015,"RA_OF_ASC_NODE":32.1635,"ARG_OF_PERICENTER":84.7942,"MEAN_ANOMALY":275.3132,"EPHEMERIS_TYPE":0,"CLASSIFICATION_TYPE":"U","NORAD_CAT_ID":65951,"ELEMENT_SET_NO":999,"REV_AT_EPOCH":2222,"BSTAR":-0.0017158037,"MEAN_MOTION_DOT":-0.00013237,"MEAN_MOTION_DDOT":0},{"OBJECT_NAME":"KUIPER-00123","OBJECT_ID":"2025-228F","EPOCH":"2026-03-03T05:02:18.450528","MEAN_MOTION":14.79937341,"ECCENTRICITY":0.00010314,"INCLINATION":51.8995,"RA_OF_ASC_NODE":31.7465,"ARG_OF_PERICENTER":91.7301,"MEAN_ANOMALY":268.3779,"EPHEMERIS_TYPE":0,"CLASSIFICATION_TYPE":"U","NORAD_CAT_ID":65952,"ELEMENT_SET_NO":999,"REV_AT_EPOCH":2223,"BSTAR":0.00084190835,"MEAN_MOTION_DOT":6.203e-5,"MEAN_MOTION_DDOT":0},{"OBJECT_NAME":"KUIPER-00124","OBJECT_ID":"2025-228G","EPOCH":"2026-03-03T01:59:13.393824","MEAN_MOTION":14.79938137,"ECCENTRICITY":0.00010776,"INCLINATION":51.8989,"RA_OF_ASC_NODE":24.7939,"ARG_OF_PERICENTER":102.0648,"MEAN_ANOMALY":258.0435,"EPHEMERIS_TYPE":0,"CLASSIFICATION_TYPE":"U","NORAD_CAT_ID":65953,"ELEMENT_SET_NO":999,"REV_AT_EPOCH":2232,"BSTAR":9.868982e-6,"MEAN_MOTION_DOT":-1.46e-6,"MEAN_MOTION_DDOT":0},{"OBJECT_NAME":"KUIPER-00125","OBJECT_ID":"2025-228H","EPOCH":"2026-03-03T05:37:00.603264","MEAN_MOTION":14.79912808,"ECCENTRICITY":9.606e-5,"INCLINATION":51.9019,"RA_OF_ASC_NODE":9.15,"ARG_OF_PERICENTER":107.9676,"MEAN_ANOMALY":252.1391,"EPHEMERIS_TYPE":0,"CLASSIFICATION_TYPE":"U","NORAD_CAT_ID":65954,"ELEMENT_SET_NO":999,"REV_AT_EPOCH":2255,"BSTAR":0.00091026031,"MEAN_MOTION_DOT":6.722e-5,"MEAN_MOTION_DDOT":0},{"OBJECT_NAME":"KUIPER-00126","OBJECT_ID":"2025-228J","EPOCH":"2026-03-03T02:40:05.024064","MEAN_MOTION":14.7994105,"ECCENTRICITY":0.00010217,"INCLINATION":51.8986,"RA_OF_ASC_NODE":29.6911,"ARG_OF_PERICENTER":99.6349,"MEAN_ANOMALY":260.4729,"EPHEMERIS_TYPE":0,"CLASSIFICATION_TYPE":"U","NORAD_CAT_ID":65955,"ELEMENT_SET_NO":999,"REV_AT_EPOCH":2225,"BSTAR":0.0003137441,"MEAN_MOTION_DOT":2.172e-5,"MEAN_MOTION_DDOT":0},{"OBJECT_NAME":"KUIPER-00127","OBJECT_ID":"2025-228K","EPOCH":"2026-03-03T07:47:17.461824","MEAN_MOTION":14.76347939,"ECCENTRICITY":0.00014065,"INCLINATION":51.901,"RA_OF_ASC_NODE":20.0175,"ARG_OF_PERICENTER":171.8581,"MEAN_ANOMALY":188.2403,"EPHEMERIS_TYPE":0,"CLASSIFICATION_TYPE":"U","NORAD_CAT_ID":65956,"ELEMENT_SET_NO":999,"REV_AT_EPOCH":2241,"BSTAR":0.00063051272,"MEAN_MOTION_DOT":4.205e-5,"MEAN_MOTION_DDOT":0},{"OBJECT_NAME":"KUIPER-00128","OBJECT_ID":"2025-228L","EPOCH":"2026-03-03T02:02:42.830016","MEAN_MOTION":14.79831526,"ECCENTRICITY":8.152e-5,"INCLINATION":51.9022,"RA_OF_ASC_NODE":22.3193,"ARG_OF_PERICENTER":96.763,"MEAN_ANOMALY":263.3425,"EPHEMERIS_TYPE":0,"CLASSIFICATION_TYPE":"U","NORAD_CAT_ID":65957,"ELEMENT_SET_NO":999,"REV_AT_EPOCH":2235,"BSTAR":0.00078709285,"MEAN_MOTION_DOT":5.77e-5,"MEAN_MOTION_DDOT":0},{"OBJECT_NAME":"KUIPER-00129","OBJECT_ID":"2025-228M","EPOCH":"2026-03-03T02:59:29.915520","MEAN_MOTION":14.79937379,"ECCENTRICITY":0.00010031,"INCLINATION":51.9022,"RA_OF_ASC_NODE":17.1328,"ARG_OF_PERICENTER":84.9197,"MEAN_ANOMALY":275.188,"EPHEMERIS_TYPE":0,"CLASSIFICATION_TYPE":"U","NORAD_CAT_ID":65958,"ELEMENT_SET_NO":999,"REV_AT_EPOCH":2243,"BSTAR":0.00032028435,"MEAN_MOTION_DOT":2.221e-5,"MEAN_MOTION_DDOT":0},{"OBJECT_NAME":"KUIPER-00130","OBJECT_ID":"2025-228N","EPOCH":"2026-03-03T02:07:23.184192","MEAN_MOTION":14.79978214,"ECCENTRICITY":0.0001124,"INCLINATION":51.9039,"RA_OF_ASC_NODE":19.8005,"ARG_OF_PERICENTER":93.3998,"MEAN_ANOMALY":266.7093,"EPHEMERIS_TYPE":0,"CLASSIFICATION_TYPE":"U","NORAD_CAT_ID":65959,"ELEMENT_SET_NO":999,"REV_AT_EPOCH":1268,"BSTAR":0.00079583043,"MEAN_MOTION_DOT":5.857e-5,"MEAN_MOTION_DDOT":0},{"OBJECT_NAME":"KUIPER-00134","OBJECT_ID":"2025-228P","EPOCH":"2026-03-03T05:17:34.729440","MEAN_MOTION":15.38347653,"ECCENTRICITY":0.00053062,"INCLINATION":51.8771,"RA_OF_ASC_NODE":351.7148,"ARG_OF_PERICENTER":301.7919,"MEAN_ANOMALY":58.2551,"EPHEMERIS_TYPE":0,"CLASSIFICATION_TYPE":"U","NORAD_CAT_ID":65960,"ELEMENT_SET_NO":999,"REV_AT_EPOCH":2279,"BSTAR":0.0011217012,"MEAN_MOTION_DOT":0.00042941,"MEAN_MOTION_DDOT":0},{"OBJECT_NAME":"KUIPER-00135","OBJECT_ID":"2025-228Q","EPOCH":"2026-03-03T06:10:05.361600","MEAN_MOTION":14.79925586,"ECCENTRICITY":9.064e-5,"INCLINATION":51.9036,"RA_OF_ASC_NODE":19.1148,"ARG_OF_PERICENTER":79.6421,"MEAN_ANOMALY":280.4644,"EPHEMERIS_TYPE":0,"CLASSIFICATION_TYPE":"U","NORAD_CAT_ID":65961,"ELEMENT_SET_NO":999,"REV_AT_EPOCH":2241,"BSTAR":-0.00059257809,"MEAN_MOTION_DOT":-4.735e-5,"MEAN_MOTION_DDOT":0},{"OBJECT_NAME":"KUIPER-00136","OBJECT_ID":"2025-228R","EPOCH":"2026-03-03T02:10:36.120576","MEAN_MOTION":14.79843077,"ECCENTRICITY":0.00013824,"INCLINATION":51.9018,"RA_OF_ASC_NODE":17.3224,"ARG_OF_PERICENTER":95.3717,"MEAN_ANOMALY":264.7404,"EPHEMERIS_TYPE":0,"CLASSIFICATION_TYPE":"U","NORAD_CAT_ID":65962,"ELEMENT_SET_NO":999,"REV_AT_EPOCH":2242,"BSTAR":0.00083428759,"MEAN_MOTION_DOT":6.131e-5,"MEAN_MOTION_DDOT":0},{"OBJECT_NAME":"KUIPER-00137","OBJECT_ID":"2025-228S","EPOCH":"2026-03-01T03:24:47.850336","MEAN_MOTION":14.83494519,"ECCENTRICITY":0.00020155,"INCLINATION":51.9033,"RA_OF_ASC_NODE":23.4733,"ARG_OF_PERICENTER":145.013,"MEAN_ANOMALY":215.0966,"EPHEMERIS_TYPE":0,"CLASSIFICATION_TYPE":"U","NORAD_CAT_ID":65963,"ELEMENT_SET_NO":999,"REV_AT_EPOCH":2217,"BSTAR":0.00075902351,"MEAN_MOTION_DOT":6.08e-5,"MEAN_MOTION_DDOT":0},{"OBJECT_NAME":"KUIPER-00138","OBJECT_ID":"2025-228T","EPOCH":"2026-03-03T01:29:56.848992","MEAN_MOTION":14.79937999,"ECCENTRICITY":8.734e-5,"INCLINATION":51.8998,"RA_OF_ASC_NODE":12.3968,"ARG_OF_PERICENTER":85.0417,"MEAN_ANOMALY":275.0645,"EPHEMERIS_TYPE":0,"CLASSIFICATION_TYPE":"U","NORAD_CAT_ID":65964,"ELEMENT_SET_NO":999,"REV_AT_EPOCH":2249,"BSTAR":-0.00013420245,"MEAN_MOTION_DOT":-1.244e-5,"MEAN_MOTION_DDOT":0},{"OBJECT_NAME":"KUIPER-00140","OBJECT_ID":"2025-228U","EPOCH":"2026-03-03T01:26:04.289568","MEAN_MOTION":14.79923925,"ECCENTRICITY":0.00010236,"INCLINATION":51.9005,"RA_OF_ASC_NODE":14.9919,"ARG_OF_PERICENTER":82.9053,"MEAN_ANOMALY":277.2025,"EPHEMERIS_TYPE":0,"CLASSIFICATION_TYPE":"U","NORAD_CAT_ID":65965,"ELEMENT_SET_NO":999,"REV_AT_EPOCH":2245,"BSTAR":0.00039237818,"MEAN_MOTION_DOT":2.771e-5,"MEAN_MOTION_DDOT":0}]
